{
  "type": "FeatureCollection",
  "features": [
    {
      "type": "Feature",
      "properties": {
        "norad_id": 32143,
        "name": "FENGYUN 1C DEB",
        "group": "fengyun-1c-debris",
        "lat": -51.12915071192789,
        "lon": -32.24227858486879,
        "alt_km": 914.2376683274179,
        "timestamp": "2025-12-05T18:53:13.567447+00:00",
        "meta_object_name": "FENGYUN 1C DEB",
        "meta_object_id": "1999-025CSM",
        "meta_epoch": "2025-12-03T04:28:30.343584",
        "meta_mean_motion": 14.17959367,
        "meta_eccentricity": 0.01041232,
        "meta_inclination": 98.5963,
        "meta_ra_of_asc_node": 314.4234,
        "meta_arg_of_pericenter": 136.0042,
        "meta_mean_anomaly": 224.9481,
        "meta_ephemeris_type": 0,
        "meta_classification_type": "U",
        "meta_norad_cat_id": 32143,
        "meta_element_set_no": 999,
        "meta_rev_at_epoch": 95798,
        "meta_bstar": 0.00020859227,
        "meta_mean_motion_dot": 4.09e-06,
        "meta_mean_motion_ddot": 0,
        "tle_line1": "1 32143U 99025CSM 25337.18646231  .00000409  00000+0  20859-3 0  9998",
        "tle_line2": "2 32143  98.5963 314.4234 0104123 136.0042 224.9481 14.17959367957983"
      },
      "geometry": {
        "type": "Point",
        "coordinates": [
          -32.24227858486879,
          -51.12915071192789
        ]
      }
    },
    {
      "type": "Feature",
      "properties": {
        "norad_id": 32150,
        "name": "FENGYUN 1C DEB",
        "group": "fengyun-1c-debris",
        "lat": 24.689347744595032,
        "lon": -173.84148953593044,
        "alt_km": 639.7269076465936,
        "timestamp": "2025-12-05T18:53:13.567457+00:00",
        "meta_object_name": "FENGYUN 1C DEB",
        "meta_object_id": "1999-025CSU",
        "meta_epoch": "2025-12-05T06:41:21.155712",
        "meta_mean_motion": 14.60647769,
        "meta_eccentricity": 0.01717281,
        "meta_inclination": 99.1969,
        "meta_ra_of_asc_node": 1.3229,
        "meta_arg_of_pericenter": 90.154,
        "meta_mean_anomaly": 271.9335,
        "meta_ephemeris_type": 0,
        "meta_classification_type": "U",
        "meta_norad_cat_id": 32150,
        "meta_element_set_no": 999,
        "meta_rev_at_epoch": 97597,
        "meta_bstar": 0.00021172379,
        "meta_mean_motion_dot": 1.202e-05,
        "meta_mean_motion_ddot": 0,
        "tle_line1": "1 32150U 99025CSU 25339.27871708  .00001202  00000+0  21172-3 0  9998",
        "tle_line2": "2 32150  99.1969   1.3229 0171728  90.1540 271.9335 14.60647769975975"
      },
      "geometry": {
        "type": "Point",
        "coordinates": [
          -173.84148953593044,
          24.689347744595032
        ]
      }
    },
    {
      "type": "Feature",
      "properties": {
        "norad_id": 32152,
        "name": "FENGYUN 1C DEB",
        "group": "fengyun-1c-debris",
        "lat": 78.86331221637434,
        "lon": 89.01289479645624,
        "alt_km": 726.6337151835851,
        "timestamp": "2025-12-05T18:53:13.567467+00:00",
        "meta_object_name": "FENGYUN 1C DEB",
        "meta_object_id": "1999-025CSW",
        "meta_epoch": "2025-12-04T06:13:51.350304",
        "meta_mean_motion": 14.56482444,
        "meta_eccentricity": 0.0055324,
        "meta_inclination": 98.7599,
        "meta_ra_of_asc_node": 138.9704,
        "meta_arg_of_pericenter": 227.1779,
        "meta_mean_anomaly": 132.4761,
        "meta_ephemeris_type": 0,
        "meta_classification_type": "U",
        "meta_norad_cat_id": 32152,
        "meta_element_set_no": 999,
        "meta_rev_at_epoch": 62489,
        "meta_bstar": 0.0046274,
        "meta_mean_motion_dot": 0.00021013,
        "meta_mean_motion_ddot": 0,
        "tle_line1": "1 32152U 99025CSW 25338.25962211  .00021013  00000+0  46274-2 0  9998",
        "tle_line2": "2 32152  98.7599 138.9704 0055324 227.1779 132.4761 14.56482444624893"
      },
      "geometry": {
        "type": "Point",
        "coordinates": [
          89.01289479645624,
          78.86331221637434
        ]
      }
    },
    {
      "type": "Feature",
      "properties": {
        "norad_id": 32153,
        "name": "FENGYUN 1C DEB",
        "group": "fengyun-1c-debris",
        "lat": -69.91188306375483,
        "lon": -22.52723976945072,
        "alt_km": 591.9372873940893,
        "timestamp": "2025-12-05T18:53:13.567478+00:00",
        "meta_object_name": "FENGYUN 1C DEB",
        "meta_object_id": "1999-025CSX",
        "meta_epoch": "2025-12-01T12:36:09.592128",
        "meta_mean_motion": 14.48662778,
        "meta_eccentricity": 0.02070632,
        "meta_inclination": 98.7701,
        "meta_ra_of_asc_node": 178.0134,
        "meta_arg_of_pericenter": 255.2407,
        "meta_mean_anomaly": 102.576,
        "meta_ephemeris_type": 0,
        "meta_classification_type": "U",
        "meta_norad_cat_id": 32153,
        "meta_element_set_no": 999,
        "meta_rev_at_epoch": 97061,
        "meta_bstar": 0.00036967855,
        "meta_mean_motion_dot": 1.766e-05,
        "meta_mean_motion_ddot": 0,
        "tle_line1": "1 32153U 99025CSX 25335.52511102  .00001766  00000+0  36968-3 0  9998",
        "tle_line2": "2 32153  98.7701 178.0134 0207063 255.2407 102.5760 14.48662778970612"
      },
      "geometry": {
        "type": "Point",
        "coordinates": [
          -22.52723976945072,
          -69.91188306375483
        ]
      }
    },
    {
      "type": "Feature",
      "properties": {
        "norad_id": 32155,
        "name": "FENGYUN 1C DEB",
        "group": "fengyun-1c-debris",
        "lat": -80.49907322472387,
        "lon": 18.79632857598793,
        "alt_km": 739.9705926786282,
        "timestamp": "2025-12-05T18:53:13.567487+00:00",
        "meta_object_name": "FENGYUN 1C DEB",
        "meta_object_id": "1999-025CSZ",
        "meta_epoch": "2025-12-04T13:09:10.027872",
        "meta_mean_motion": 14.32912866,
        "meta_eccentricity": 0.0069286,
        "meta_inclination": 98.9526,
        "meta_ra_of_asc_node": 267.8922,
        "meta_arg_of_pericenter": 264.2615,
        "meta_mean_anomaly": 95.0665,
        "meta_ephemeris_type": 0,
        "meta_classification_type": "U",
        "meta_norad_cat_id": 32155,
        "meta_element_set_no": 999,
        "meta_rev_at_epoch": 70105,
        "meta_bstar": 0.001161,
        "meta_mean_motion_dot": 3.211e-05,
        "meta_mean_motion_ddot": 0,
        "tle_line1": "1 32155U 99025CSZ 25338.54803273  .00003211  00000+0  11610-2 0  9991",
        "tle_line2": "2 32155  98.9526 267.8922 0069286 264.2615  95.0665 14.32912866701056"
      },
      "geometry": {
        "type": "Point",
        "coordinates": [
          18.79632857598793,
          -80.49907322472387
        ]
      }
    },
    {
      "type": "Feature",
      "properties": {
        "norad_id": 32156,
        "name": "FENGYUN 1C DEB",
        "group": "fengyun-1c-debris",
        "lat": -60.46282854519721,
        "lon": 165.72868882452846,
        "alt_km": 836.6891059569343,
        "timestamp": "2025-12-05T18:53:13.567497+00:00",
        "meta_object_name": "FENGYUN 1C DEB",
        "meta_object_id": "1999-025CTA",
        "meta_epoch": "2025-11-28T04:22:59.204352",
        "meta_mean_motion": 14.31912456,
        "meta_eccentricity": 0.00824268,
        "meta_inclination": 99.3546,
        "meta_ra_of_asc_node": 140.6244,
        "meta_arg_of_pericenter": 99.0063,
        "meta_mean_anomaly": 262.0458,
        "meta_ephemeris_type": 0,
        "meta_classification_type": "U",
        "meta_norad_cat_id": 32156,
        "meta_element_set_no": 999,
        "meta_rev_at_epoch": 64612,
        "meta_bstar": 0.00036827986,
        "meta_mean_motion_dot": 9.74e-06,
        "meta_mean_motion_ddot": 0,
        "tle_line1": "1 32156U 99025CTA 25332.18262968  .00000974  00000+0  36828-3 0  9998",
        "tle_line2": "2 32156  99.3546 140.6244 0082426  99.0063 262.0458 14.31912456646127"
      },
      "geometry": {
        "type": "Point",
        "coordinates": [
          165.72868882452846,
          -60.46282854519721
        ]
      }
    },
    {
      "type": "Feature",
      "properties": {
        "norad_id": 32160,
        "name": "FENGYUN 1C DEB",
        "group": "fengyun-1c-debris",
        "lat": -35.35519796549377,
        "lon": 143.094360041871,
        "alt_km": 738.9089930246,
        "timestamp": "2025-12-05T18:53:13.567508+00:00",
        "meta_object_name": "FENGYUN 1C DEB",
        "meta_object_id": "1999-025CTE",
        "meta_epoch": "2025-12-04T06:18:04.586976",
        "meta_mean_motion": 14.37533289,
        "meta_eccentricity": 0.0082414,
        "meta_inclination": 98.8812,
        "meta_ra_of_asc_node": 135.1511,
        "meta_arg_of_pericenter": 23.9168,
        "meta_mean_anomaly": 336.5812,
        "meta_ephemeris_type": 0,
        "meta_classification_type": "U",
        "meta_norad_cat_id": 32160,
        "meta_element_set_no": 999,
        "meta_rev_at_epoch": 95765,
        "meta_bstar": 0.00077758,
        "meta_mean_motion_dot": 2.375e-05,
        "meta_mean_motion_ddot": 0,
        "tle_line1": "1 32160U 99025CTE 25338.26255309  .00002375  00000+0  77758-3 0  9993",
        "tle_line2": "2 32160  98.8812 135.1511 0082414  23.9168 336.5812 14.37533289957650"
      },
      "geometry": {
        "type": "Point",
        "coordinates": [
          143.094360041871,
          -35.35519796549377
        ]
      }
    }
  ]
}